ONEWEB-0228             
1 48780U 21045P   23326.36281664 -.00000116  00000+0 -34129-3 0  9992
2 48780  87.8985  85.8827 0001415 101.4610 258.6679 13.15550659121025
